NORAD_CAT_ID,OBJECT_NAME,OBJECT_TYPE,EPOCH,MEAN_MOTION,ECCENTRICITY,INCLINATION,RA_OF_ASC_NODE,ARG_OF_PERICENTER,MEAN_ANOMALY,BSTAR,MEAN_MOTION_DOT,MEAN_MOTION_DDOT,TLE_LINE0,TLE_LINE1,TLE_LINE2,SEMIMAJOR_AXIS,PERIOD,APOGEE,PERIGEE,DECAYED
53397.0,STARLINK-4515,PAYLOAD,2022-09-18 14:00:01,15.22242448,0.0001503,53.218,57.1358,70.3335,77.7343,-0.054371,-0.01166661,0.0,0 STARLINK-4515,1 53397U 22097K   22261.58335648 -.01166661  00000-0 -54371-1 0  9992,2 53397  53.2180  57.1358 0001503  70.3335  77.7343 15.22242448  6570,6877.215,94.597,500.114,498.047,0.0
53397.0,STARLINK-4515,PAYLOAD,2022-09-18 22:00:00,15.21413457,0.000143,53.2173,55.6087,68.7286,106.4702,-0.053839,-0.01130171,0.0,0 STARLINK-4515,1 53397U 22097K   22261.91667824 -.01130171  00000-0 -53839-1 0  9998,2 53397  53.2173  55.6087 0001430  68.7286 106.4702 15.21413457  1303,6879.7130000000025,94.649,502.562,500.594,0.0
53397.0,STARLINK-4515,PAYLOAD,2022-09-19 14:00:01,15.19808815,0.0001506999999999,53.2176,52.5589,63.7602,162.9073,-0.05655,-0.01132227,0.0,0 STARLINK-4515,1 53397U 22097K   22262.58334491 -.01132227  00000-0 -56550-1 0  9990,2 53397  53.2176  52.5589 0001507  63.7602 162.9073 15.19808815  1302,6884.555,94.749,507.457,505.382,0.0
53397.0,STARLINK-4515,PAYLOAD,2022-09-19 22:00:00,15.19006185,0.0001367,53.2172,51.038,72.0711,178.8828,-0.057882,-0.01132042,0.0,0 STARLINK-4515,1 53397U 22097K   22262.91667824 -.01132042  00000-0 -57882-1 0  9990,2 53397  53.2172  51.0380 0001367  72.0711 178.8828 15.19006185  6779,6886.98,94.799,509.786,507.903,0.0
53397.0,STARLINK-4515,PAYLOAD,2022-09-20 14:00:01,15.17400266,0.0001509,53.2174,47.9995,52.5032,244.1309,-0.060634,-0.01131945,0.0,0 STARLINK-4515,1 53397U 22097K   22263.58334491 -.01131945  00000-0 -60634-1 0  9995,2 53397  53.2174  47.9995 0001509  52.5032 244.1309 15.17400266  1305,6891.8380000000025,94.899,514.743,512.663,0.0
53397.0,STARLINK-4515,PAYLOAD,2022-09-20 22:00:01,15.16598697,0.0001256,53.2172,46.484,68.7989,249.2902,-0.06216,-0.01133752,0.0,0 STARLINK-4515,1 53397U 22097K   22263.91668981 -.01133752  00000-0 -62160-1 0  9990,2 53397  53.2172  46.4840 0001256  68.7989 249.2902 15.16598697  1305,6894.266,94.949,516.997,515.265,0.0
53397.0,STARLINK-4515,PAYLOAD,2022-09-21 22:00:00,15.14189884,0.0001373,53.2171,41.9469,53.0869,323.3282,-0.066562,-0.01133423,0.0,0 STARLINK-4515,1 53397U 22097K   22264.91667824 -.01133423  00000-0 -66562-1 0  9991,2 53397  53.2171  41.9469 0001373  53.0869 323.3282 15.14189884  1302,6901.576,95.1,524.389,522.494,0.0
53397.0,STARLINK-4515,PAYLOAD,2022-09-22 14:00:01,15.12596142,0.0001495,53.2178,38.9321,56.4892,354.0216,-0.07075,-0.01150333,0.0,0 STARLINK-4515,1 53397U 22097K   22265.58334491 -.01150333  00000-0 -70750-1 0  9999,2 53397  53.2178  38.9321 0001495  56.4892 354.0216 15.12596142  1305,6906.4230000000025,95.201,529.321,527.256,0.0
53397.0,STARLINK-4515,PAYLOAD,2022-09-22 22:00:00,15.11824156,0.0001535,53.2173,37.4281,43.2022,22.8949,-0.0749799999999999,-0.01189571,0.0,0 STARLINK-4515,1 53397U 22097K   22265.91667824 -.01189571  00000-0 -74980-1 0  9990,2 53397  53.2173  37.4281 0001535  43.2022  22.8949 15.11824156  7232,6908.774,95.249,531.7,529.5790000000002,0.0
53397.0,STARLINK-4515,PAYLOAD,2022-09-23 14:00:01,15.10173142,0.0001559,53.2173,34.4224,50.0521,44.383,-0.074372,-0.01131672,0.0,0 STARLINK-4515,1 53397U 22097K   22266.58334491 -.01131672  00000-0 -74372-1 0  9999,2 53397  53.2173  34.4224 0001559  50.0521  44.3830 15.10173142  1303,6913.809,95.353,536.751,534.596,0.0
53397.0,STARLINK-4515,PAYLOAD,2022-09-23 22:00:00,15.09249352,0.0001247,53.2171,32.9236,65.3593,41.7977,-0.033943,-0.00514407,0.0,0 STARLINK-4515,1 53397U 22097K   22266.91667824 -.00514407  00000-0 -33943-1 0  9994,2 53397  53.2171  32.9236 0001247  65.3593  41.7977 15.09249352  7381,6916.629,95.412,539.357,537.632,0.0
53397.0,STARLINK-4515,PAYLOAD,2022-09-24 06:00:00,15.0883547,0.0001533,53.2173,31.4249,49.5667,69.4555,9.087e-05,1.158e-05,0.0,0 STARLINK-4515,1 53397U 22097K   22267.25001157  .00001158  00000-0  90870-4 0  9990,2 53397  53.2173  31.4249 0001533  49.5667  69.4555 15.08835470  7431,6917.894,95.438,540.82,538.6990000000002,0.0
53397.0,STARLINK-4515,PAYLOAD,2022-09-24 14:00:01,15.08859055,0.0001608,53.2198,29.9377,46.5574,84.1352,-0.00047847,-7.899e-05,0.0,0 STARLINK-4515,1 53397U 22097K   22267.58335648 -.00007899  00000-0 -47847-3 0  9996,2 53397  53.2198  29.9377 0001608  46.5574  84.1352 15.08859055  1303,6917.821999999999,95.436,540.8,538.575,0.0
53397.0,STARLINK-4515,PAYLOAD,2022-09-24 22:00:00,15.08880823,0.0001714,53.219,28.4415,45.4273,96.8041,-0.0023773,-0.00037966,0.0,0 STARLINK-4515,1 53397U 22097K   22267.91667824 -.00037966  00000-0 -23773-2 0  9996,2 53397  53.2190  28.4415 0001714  45.4273  96.8041 15.08880823  1306,6917.755999999999,95.435,540.806,538.435,0.0
53397.0,STARLINK-4515,PAYLOAD,2022-09-25 14:00:01,15.08785765,0.0001908,53.2194,25.4491,54.0784,111.3614,0.0011539,0.00018097,0.0,0 STARLINK-4515,1 53397U 22097K   22268.58334491  .00018097  00000-0  11539-2 0  9990,2 53397  53.2194  25.4491 0001908  54.0784 111.3614 15.08785765  7639,6918.045999999999,95.441,541.231,538.591,0.0
53397.0,STARLINK-4515,PAYLOAD,2022-09-25 22:00:01,15.088351,0.0001865,53.2192,23.9527,50.9761,126.065,0.00019891,2.879e-05,0.0,0 STARLINK-4515,1 53397U 22097K   22268.91668981  .00002879  00000-0  19891-3 0  9992,2 53397  53.2192  23.9527 0001865  50.9761 126.0650 15.08835100  1302,6917.895,95.438,541.0509999999998,538.47,0.0
53397.0,STARLINK-4515,PAYLOAD,2022-09-26 10:00:00,15.08866544,0.0001684,53.2197,21.7079,55.5649,318.777,-0.0038408,-0.00060942,0.0,0 STARLINK-4515,1 53397U 22097K   22269.41667824 -.00060942  00000-0 -38408-2 0  9994,2 53397  53.2197  21.7079 0001684  55.5649 318.7770 15.08866544  7765,6917.799,95.436,540.8290000000002,538.499,0.0
53397.0,STARLINK-4515,PAYLOAD,2022-09-26 14:00:01,15.08831479,0.0001768,53.2194,20.9607,50.9196,149.2328,-0.0013527,-0.00021747,0.0,0 STARLINK-4515,1 53397U 22097K   22269.58334491 -.00021747  00000-0 -13527-2 0  9998,2 53397  53.2194  20.9607 0001768  50.9196 149.2328 15.08831479  1308,6917.906,95.438,540.995,538.548,0.0
53397.0,STARLINK-4515,PAYLOAD,2022-09-26 22:00:00,15.08828698,0.0001793,53.2181,19.4607,48.034,163.7023,0.0015712,0.00024798,0.0,0 STARLINK-4515,1 53397U 22097K   22269.91667824  .00024798  00000-0  15712-2 0  9999,2 53397  53.2181  19.4607 0001793  48.0340 163.7023 15.08828698  7830,6917.915,95.438,541.02,538.54,0.0
53397.0,STARLINK-4515,PAYLOAD,2022-09-27 14:00:01,15.08846623,0.0001758,53.2191,16.4724,50.2634,184.641,0.00021705,3.169e-05,0.0,0 STARLINK-4515,1 53397U 22097K   22270.58334491  .00003169  00000-0  21705-3 0  9994,2 53397  53.2191  16.4724 0001758  50.2634 184.6410 15.08846623  7931,6917.86,95.437,540.941,538.509,0.0
53397.0,STARLINK-4515,PAYLOAD,2022-09-27 22:00:01,15.08889557,0.0001683,53.2187,14.9755,47.4524,199.1304,-0.0034786,-0.000553,0.0,0 STARLINK-4515,1 53397U 22097K   22270.91668981 -.00055300  00000-0 -34786-2 0  9993,2 53397  53.2187  14.9755 0001683  47.4524 199.1304 15.08889557  1307,6917.729,95.434,540.758,538.43,0.0
53397.0,STARLINK-4515,PAYLOAD,2022-09-28 14:00:01,15.08839172,0.0001797,53.2187,11.9838,49.445,220.2503,-0.00061066,-9.993e-05,0.0,0 STARLINK-4515,1 53397U 22097K   22271.58334491 -.00009993  00000-0 -61066-3 0  9992,2 53397  53.2187  11.9838 0001797  49.4450 220.2503 15.08839172  8089,6917.8830000000025,95.438,540.991,538.505,0.0
53397.0,STARLINK-4515,PAYLOAD,2022-09-28 22:00:00,15.08840805,0.0001702,53.2184,10.4868,46.9276,234.3484,-0.0023479,-0.00037462,0.0,0 STARLINK-4515,1 53397U 22097K   22271.91667824 -.00037462  00000-0 -23479-2 0  9995,2 53397  53.2184  10.4868 0001702  46.9276 234.3484 15.08840805  1304,6917.878000000002,95.438,540.92,538.566,0.0
53397.0,STARLINK-4515,PAYLOAD,2022-09-29 14:00:01,15.08831936,0.0001814,53.2185,7.495,47.1969,257.2441,0.00093861,0.00014678,0.0,0 STARLINK-4515,1 53397U 22097K   22272.58334491  .00014678  00000-0  93861-3 0  9995,2 53397  53.2185   7.4950 0001814  47.1969 257.2441 15.08831936  1301,6917.905,95.438,541.025,538.515,0.0
53397.0,STARLINK-4515,PAYLOAD,2022-09-29 22:00:00,15.08869172,0.0001761,53.2183,5.9979,46.4771,269.5529,-0.001743,-0.00027943,0.0,0 STARLINK-4515,1 53397U 22097K   22272.91667824 -.00027943  00000-0 -17430-2 0  9999,2 53397  53.2183   5.9979 0001761  46.4771 269.5529 15.08869172  1303,6917.791,95.436,540.874,538.438,0.0
53397.0,STARLINK-4515,PAYLOAD,2022-09-30 14:00:01,15.0884687,0.0001971,53.2186,3.0059,48.6826,290.5795,0.0007237,0.00011251,0.0,0 STARLINK-4515,1 53397U 22097K   22273.58334491  .00011251  00000-0  72370-3 0  9992,2 53397  53.2186   3.0059 0001971  48.6826 290.5795 15.08846870  1301,6917.859,95.437,541.0880000000002,538.361,0.0
53397.0,STARLINK-4515,PAYLOAD,2022-09-30 16:00:00,15.08840857,0.0001959,53.2186,2.6321,46.9293,25.2371,0.0016539,0.00026133,0.0,0 STARLINK-4515,1 53397U 22097K   22273.66667824  .00026133  00000-0  16539-2 0  9999,2 53397  53.2186   2.6321 0001959  46.9293  25.2371 15.08840857  8403,6917.878000000002,95.438,541.0980000000002,538.388,0.0
53397.0,STARLINK-4515,PAYLOAD,2022-09-30 22:00:00,15.08873676,0.0001844,53.2185,1.5086,46.8561,304.0185,-0.0026433,-0.0004215,0.0,0 STARLINK-4515,1 53397U 22097K   22273.91667824 -.00042150  00000-0 -26433-2 0  9990,2 53397  53.2185   1.5086 0001844  46.8561 304.0185 15.08873676  1306,6917.776999999999,95.435,540.918,538.367,0.0
53397.0,STARLINK-4515,PAYLOAD,2022-10-01 14:00:01,15.08842035,0.0001884,53.2189,358.5168,43.2605,330.8445,-8.169e-05,-1.588e-05,0.0,0 STARLINK-4515,1 53397U 22097K   22274.58334491 -.00001588  00000-0 -81690-4 0  9993,2 53397  53.2189 358.5168 0001884  43.2605 330.8445 15.08842035  1301,6917.874,95.437,541.0419999999998,538.436,0.0
